[
    {
        "OBJECT_NAME": "IRIDIUM 160",
        "OBJECT_ID": "2018-061A",
        "EPOCH": "2025-05-15T15:48:46.462176",
        "MEAN_MOTION": 14.34217738,
        "ECCENTRICITY": 0.0001917,
        "INCLINATION": 86.401,
        "RA_OF_ASC_NODE": 222.8586,
        "ARG_OF_PERICENTER": 94.8946,
        "MEAN_ANOMALY": 265.2468,
        "EPHEMERIS_TYPE": 0,
        "CLASSIFICATION_TYPE": "U",
        "NORAD_CAT_ID": 43569,
        "ELEMENT_SET_NO": 999,
        "REV_AT_EPOCH": 35639,
        "BSTAR": -1.66e-06,
        "MEAN_MOTION_DOT": 1.5e-07,
        "MEAN_MOTION_DDOT": 0,
        "period": 1.668815258,
        "radius": 7141439.283,
        "altitude": 763.4392834,
        "angle": 144.0053811
    },
    {
        "OBJECT_NAME": "IRIDIUM 166",
        "OBJECT_ID": "2018-061B",
        "EPOCH": "2025-05-15T13:04:22.558656",
        "MEAN_MOTION": 14.34217782,
        "ECCENTRICITY": 0.0002547,
        "INCLINATION": 86.4007,
        "RA_OF_ASC_NODE": 222.8619,
        "ARG_OF_PERICENTER": 96.3963,
        "MEAN_ANOMALY": 263.7523,
        "EPHEMERIS_TYPE": 0,
        "CLASSIFICATION_TYPE": "U",
        "NORAD_CAT_ID": 43570,
        "ELEMENT_SET_NO": 999,
        "REV_AT_EPOCH": 35640,
        "BSTAR": 0.000115,
        "MEAN_MOTION_DOT": 3.41e-06,
        "MEAN_MOTION_DDOT": 0,
        "period": 1.668815207,
        "radius": 7141439.137,
        "altitude": 763.4391374,
        "angle": 144.0053876
    },
    {
        "OBJECT_NAME": "IRIDIUM 158",
        "OBJECT_ID": "2018-061C",
        "EPOCH": "2025-05-15T07:17:18.521376",
        "MEAN_MOTION": 14.34218007,
        "ECCENTRICITY": 0.0002276,
        "INCLINATION": 86.4007,
        "RA_OF_ASC_NODE": 222.9724,
        "ARG_OF_PERICENTER": 100.8231,
        "MEAN_ANOMALY": 259.3221,
        "EPHEMERIS_TYPE": 0,
        "CLASSIFICATION_TYPE": "U",
        "NORAD_CAT_ID": 43571,
        "ELEMENT_SET_NO": 999,
        "REV_AT_EPOCH": 35633,
        "BSTAR": 1.81e-05,
        "MEAN_MOTION_DOT": 7e-07,
        "MEAN_MOTION_DDOT": 0,
        "period": 1.668814945,
        "radius": 7141438.39,
        "altitude": 763.4383905,
        "angle": 144.0054205
    },
    {
        "OBJECT_NAME": "IRIDIUM 165",
        "OBJECT_ID": "2018-061D",
        "EPOCH": "2025-05-15T07:53:51.057888",
        "MEAN_MOTION": 14.34220671,
        "ECCENTRICITY": 0.0002466,
        "INCLINATION": 86.4009,
        "RA_OF_ASC_NODE": 223.0004,
        "ARG_OF_PERICENTER": 92.5556,
        "MEAN_ANOMALY": 267.5922,
        "EPHEMERIS_TYPE": 0,
        "CLASSIFICATION_TYPE": "U",
        "NORAD_CAT_ID": 43572,
        "ELEMENT_SET_NO": 999,
        "REV_AT_EPOCH": 35636,
        "BSTAR": 9.7e-05,
        "MEAN_MOTION_DOT": 2.91e-06,
        "MEAN_MOTION_DDOT": 0,
        "period": 1.668811845,
        "radius": 7141429.547,
        "altitude": 763.4295472,
        "angle": 144.0058106
    },
    {
        "OBJECT_NAME": "IRIDIUM 155",
        "OBJECT_ID": "2018-061E",
        "EPOCH": "2025-05-15T06:59:02.539104",
        "MEAN_MOTION": 14.34217483,
        "ECCENTRICITY": 0.0002298,
        "INCLINATION": 86.4004,
        "RA_OF_ASC_NODE": 222.9054,
        "ARG_OF_PERICENTER": 102.6564,
        "MEAN_ANOMALY": 257.4889,
        "EPHEMERIS_TYPE": 0,
        "CLASSIFICATION_TYPE": "U",
        "NORAD_CAT_ID": 43573,
        "ELEMENT_SET_NO": 999,
        "REV_AT_EPOCH": 35632,
        "BSTAR": -1.53e-05,
        "MEAN_MOTION_DOT": -2.3e-07,
        "MEAN_MOTION_DDOT": 0,
        "period": 1.668815555,
        "radius": 7141440.13,
        "altitude": 763.4401299,
        "angle": 144.0053438
    },
    {
        "OBJECT_NAME": "IRIDIUM 154",
        "OBJECT_ID": "2018-061F",
        "EPOCH": "2025-05-15T08:12:06.508800",
        "MEAN_MOTION": 14.34217166,
        "ECCENTRICITY": 0.0002295,
        "INCLINATION": 86.4009,
        "RA_OF_ASC_NODE": 222.9979,
        "ARG_OF_PERICENTER": 96.1757,
        "MEAN_ANOMALY": 263.97,
        "EPHEMERIS_TYPE": 0,
        "CLASSIFICATION_TYPE": "U",
        "NORAD_CAT_ID": 43574,
        "ELEMENT_SET_NO": 999,
        "REV_AT_EPOCH": 35638,
        "BSTAR": 2.28e-05,
        "MEAN_MOTION_DOT": 8.4e-07,
        "MEAN_MOTION_DDOT": 0,
        "period": 1.668815924,
        "radius": 7141441.182,
        "altitude": 763.4411822,
        "angle": 144.0052974
    },
    {
        "OBJECT_NAME": "IRIDIUM 163",
        "OBJECT_ID": "2018-061G",
        "EPOCH": "2025-05-15T07:44:42.477504",
        "MEAN_MOTION": 14.34217568,
        "ECCENTRICITY": 0.0002011,
        "INCLINATION": 86.4006,
        "RA_OF_ASC_NODE": 222.9339,
        "ARG_OF_PERICENTER": 98.5705,
        "MEAN_ANOMALY": 261.5718,
        "EPHEMERIS_TYPE": 0,
        "CLASSIFICATION_TYPE": "U",
        "NORAD_CAT_ID": 43575,
        "ELEMENT_SET_NO": 999,
        "REV_AT_EPOCH": 35635,
        "BSTAR": -1.28e-05,
        "MEAN_MOTION_DOT": -1.6e-07,
        "MEAN_MOTION_DDOT": 0,
        "period": 1.668815456,
        "radius": 7141439.848,
        "altitude": 763.4398477,
        "angle": 144.0053562
    },
    {
        "OBJECT_NAME": "IRIDIUM 156",
        "OBJECT_ID": "2018-061H",
        "EPOCH": "2025-05-15T13:50:02.560992",
        "MEAN_MOTION": 14.34217999,
        "ECCENTRICITY": 0.0002557,
        "INCLINATION": 86.4005,
        "RA_OF_ASC_NODE": 222.8347,
        "ARG_OF_PERICENTER": 101.8371,
        "MEAN_ANOMALY": 258.3112,
        "EPHEMERIS_TYPE": 0,
        "CLASSIFICATION_TYPE": "U",
        "NORAD_CAT_ID": 43576,
        "ELEMENT_SET_NO": 999,
        "REV_AT_EPOCH": 35638,
        "BSTAR": 2.89e-05,
        "MEAN_MOTION_DOT": 1.01e-06,
        "MEAN_MOTION_DDOT": 0,
        "period": 1.668814954,
        "radius": 7141438.417,
        "altitude": 763.438417,
        "angle": 144.0054193
    },
    {
        "OBJECT_NAME": "IRIDIUM 164",
        "OBJECT_ID": "2018-061J",
        "EPOCH": "2025-05-15T18:24:02.531808",
        "MEAN_MOTION": 14.34217429,
        "ECCENTRICITY": 0.0002378,
        "INCLINATION": 86.4007,
        "RA_OF_ASC_NODE": 222.7892,
        "ARG_OF_PERICENTER": 91.199,
        "MEAN_ANOMALY": 268.9478,
        "EPHEMERIS_TYPE": 0,
        "CLASSIFICATION_TYPE": "U",
        "NORAD_CAT_ID": 43577,
        "ELEMENT_SET_NO": 999,
        "REV_AT_EPOCH": 35645,
        "BSTAR": -2.3e-05,
        "MEAN_MOTION_DOT": -4.5e-07,
        "MEAN_MOTION_DDOT": 0,
        "period": 1.668815618,
        "radius": 7141440.309,
        "altitude": 763.4403092,
        "angle": 144.0053359
    },
    {
        "OBJECT_NAME": "IRIDIUM 159",
        "OBJECT_ID": "2018-061K",
        "EPOCH": "2025-05-16T05:21:38.513952",
        "MEAN_MOTION": 14.34218018,
        "ECCENTRICITY": 0.0002146,
        "INCLINATION": 86.4009,
        "RA_OF_ASC_NODE": 222.544,
        "ARG_OF_PERICENTER": 90.1008,
        "MEAN_ANOMALY": 270.0434,
        "EPHEMERIS_TYPE": 0,
        "CLASSIFICATION_TYPE": "U",
        "NORAD_CAT_ID": 43578,
        "ELEMENT_SET_NO": 999,
        "REV_AT_EPOCH": 35648,
        "BSTAR": 2.03e-05,
        "MEAN_MOTION_DOT": 7.7e-07,
        "MEAN_MOTION_DDOT": 0,
        "period": 1.668814932,
        "radius": 7141438.354,
        "altitude": 763.4383539,
        "angle": 144.0054221
    },
    {
        "OBJECT_NAME": "IRIDIUM 180",
        "OBJECT_ID": "2019-002A",
        "EPOCH": "2025-05-16T01:59:58.879104",
        "MEAN_MOTION": 14.34217466,
        "ECCENTRICITY": 0.0002223,
        "INCLINATION": 86.3984,
        "RA_OF_ASC_NODE": 159.5895,
        "ARG_OF_PERICENTER": 93.568,
        "MEAN_ANOMALY": 266.577,
        "EPHEMERIS_TYPE": 0,
        "CLASSIFICATION_TYPE": "U",
        "NORAD_CAT_ID": 43922,
        "ELEMENT_SET_NO": 999,
        "REV_AT_EPOCH": 33211,
        "BSTAR": -2.94e-06,
        "MEAN_MOTION_DOT": 1.2e-07,
        "MEAN_MOTION_DDOT": 0,
        "period": 1.668815574,
        "radius": 7141440.186,
        "altitude": 763.4401863,
        "angle": 144.0053413
    }
]